{
  "type": "FeatureCollection",
  "features": [
    {
      "type": "Feature",
      "properties": {
        "norad_id": 40376,
        "name": "SMAP",
        "group": "resource",
        "lat": 63.37090862693237,
        "lon": -166.3436432445557,
        "alt_km": 675.4167137777658,
        "timestamp": "2025-12-18T10:51:25.446385+00:00",
        "meta_object_name": "SMAP",
        "meta_object_id": "2015-003A",
        "meta_epoch": "2025-12-17T21:12:11.832192",
        "meta_mean_motion": 14.63351584,
        "meta_eccentricity": 0.00012141,
        "meta_inclination": 98.1288,
        "meta_ra_of_asc_node": 356.5332,
        "meta_arg_of_pericenter": 91.0615,
        "meta_mean_anomaly": 269.0726,
        "meta_ephemeris_type": 0,
        "meta_classification_type": "U",
        "meta_norad_cat_id": 40376,
        "meta_element_set_no": 999,
        "meta_rev_at_epoch": 58110,
        "meta_bstar": 0.00010014821,
        "meta_mean_motion_dot": 4.7e-06,
        "meta_mean_motion_ddot": 0,
        "tle_line1": "1 40376U 15003A   25351.88347028  .00000470  00000+0  10015-3 0  9995",
        "tle_line2": "2 40376  98.1288 356.5332 0001214  91.0615 269.0726 14.63351584581102"
      },
      "geometry": {
        "type": "Point",
        "coordinates": [
          -166.3436432445557,
          63.37090862693237
        ]
      }
    },
    {
      "type": "Feature",
      "properties": {
        "norad_id": 40536,
        "name": "KOMPSAT-3A",
        "group": "resource",
        "lat": 23.790892852382182,
        "lon": -36.294771203872564,
        "alt_km": 433.4134511013426,
        "timestamp": "2025-12-18T10:51:25.446396+00:00",
        "meta_object_name": "KOMPSAT-3A",
        "meta_object_id": "2015-014A",
        "meta_epoch": "2025-12-17T22:18:40.228128",
        "meta_mean_motion": 15.44132071,
        "meta_eccentricity": 0.00052469,
        "meta_inclination": 97.6784,
        "meta_ra_of_asc_node": 326.5634,
        "meta_arg_of_pericenter": 115.3896,
        "meta_mean_anomaly": 244.7895,
        "meta_ephemeris_type": 0,
        "meta_classification_type": "U",
        "meta_norad_cat_id": 40536,
        "meta_element_set_no": 999,
        "meta_rev_at_epoch": 59375,
        "meta_bstar": 0.00034593938,
        "meta_mean_motion_dot": 0.00015763,
        "meta_mean_motion_ddot": 0,
        "tle_line1": "1 40536U 15014A   25351.92963227  .00015763  00000+0  34594-3 0  9994",
        "tle_line2": "2 40536  97.6784 326.5634 0005246 115.3896 244.7895 15.44132071593756"
      },
      "geometry": {
        "type": "Point",
        "coordinates": [
          -36.294771203872564,
          23.790892852382182
        ]
      }
    },
    {
      "type": "Feature",
      "properties": {
        "norad_id": 40697,
        "name": "SENTINEL-2A",
        "group": "resource",
        "lat": 35.1929314613309,
        "lon": 58.79581494191866,
        "alt_km": 786.221310779034,
        "timestamp": "2025-12-18T10:51:25.446406+00:00",
        "meta_object_name": "SENTINEL-2A",
        "meta_object_id": "2015-028A",
        "meta_epoch": "2025-12-18T03:58:39.593856",
        "meta_mean_motion": 14.30807476,
        "meta_eccentricity": 0.000104,
        "meta_inclination": 98.5743,
        "meta_ra_of_asc_node": 64.6211,
        "meta_arg_of_pericenter": 92.7979,
        "meta_mean_anomaly": 267.3323,
        "meta_ephemeris_type": 0,
        "meta_classification_type": "U",
        "meta_norad_cat_id": 40697,
        "meta_element_set_no": 999,
        "meta_rev_at_epoch": 54784,
        "meta_bstar": 6.5453e-05,
        "meta_mean_motion_dot": 1.28e-06,
        "meta_mean_motion_ddot": 0,
        "tle_line1": "1 40697U 15028A   25352.16573604  .00000128  00000+0  65453-4 0  9998",
        "tle_line2": "2 40697  98.5743  64.6211 0001040  92.7979 267.3323 14.30807476547846"
      },
      "geometry": {
        "type": "Point",
        "coordinates": [
          58.79581494191866,
          35.1929314613309
        ]
      }
    },
    {
      "type": "Feature",
      "properties": {
        "norad_id": 40701,
        "name": "GAOFEN-8",
        "group": "resource",
        "lat": 42.79932780422689,
        "lon": -1.9412278909319607,
        "alt_km": 438.7449267990787,
        "timestamp": "2025-12-18T10:51:25.446416+00:00",
        "meta_object_name": "GAOFEN-8",
        "meta_object_id": "2015-030A",
        "meta_epoch": "2025-12-17T23:20:26.879712",
        "meta_mean_motion": 15.38722544,
        "meta_eccentricity": 0.00117649,
        "meta_inclination": 97.6896,
        "meta_ra_of_asc_node": 170.3682,
        "meta_arg_of_pericenter": 120.2148,
        "meta_mean_anomaly": 240.0263,
        "meta_ephemeris_type": 0,
        "meta_classification_type": "U",
        "meta_norad_cat_id": 40701,
        "meta_element_set_no": 999,
        "meta_rev_at_epoch": 58351,
        "meta_bstar": 0.000394303,
        "meta_mean_motion_dot": 0.00015047,
        "meta_mean_motion_ddot": 0,
        "tle_line1": "1 40701U 15030A   25351.97253333  .00015047  00000+0  39430-3 0  9990",
        "tle_line2": "2 40701  97.6896 170.3682 0011764 120.2148 240.0263 15.38722544583513"
      },
      "geometry": {
        "type": "Point",
        "coordinates": [
          -1.9412278909319607,
          42.79932780422689
        ]
      }
    },
    {
      "type": "Feature",
      "properties": {
        "norad_id": 40718,
        "name": "CARBONITE 1 (CBNT-1)",
        "group": "resource",
        "lat": 0.10222535195596354,
        "lon": 173.23036762163053,
        "alt_km": 633.4550132201139,
        "timestamp": "2025-12-18T10:51:25.446427+00:00",
        "meta_object_name": "CARBONITE 1 (CBNT-1)",
        "meta_object_id": "2015-032D",
        "meta_epoch": "2025-12-17T23:31:10.034400",
        "meta_mean_motion": 14.8276716,
        "meta_eccentricity": 0.00147319,
        "meta_inclination": 97.6395,
        "meta_ra_of_asc_node": 172.7927,
        "meta_arg_of_pericenter": 164.3327,
        "meta_mean_anomaly": 195.8346,
        "meta_ephemeris_type": 0,
        "meta_classification_type": "U",
        "meta_norad_cat_id": 40718,
        "meta_element_set_no": 999,
        "meta_rev_at_epoch": 56248,
        "meta_bstar": 0.00018139248,
        "meta_mean_motion_dot": 1.418e-05,
        "meta_mean_motion_ddot": 0,
        "tle_line1": "1 40718U 15032D   25351.97997725  .00001418  00000+0  18139-3 0  9990",
        "tle_line2": "2 40718  97.6395 172.7927 0014731 164.3327 195.8346 14.82767160562481"
      },
      "geometry": {
        "type": "Point",
        "coordinates": [
          173.23036762163053,
          0.10222535195596354
        ]
      }
    },
    {
      "type": "Feature",
      "properties": {
        "norad_id": 40878,
        "name": "YAOGAN-27",
        "group": "resource",
        "lat": -54.59683436961946,
        "lon": 147.29033332177733,
        "alt_km": 1202.0944418196596,
        "timestamp": "2025-12-18T10:51:25.446437+00:00",
        "meta_object_name": "YAOGAN-27",
        "meta_object_id": "2015-040A",
        "meta_epoch": "2025-12-17T22:42:52.981920",
        "meta_mean_motion": 13.16062401,
        "meta_eccentricity": 0.00075715,
        "meta_inclination": 100.1006,
        "meta_ra_of_asc_node": 341.331,
        "meta_arg_of_pericenter": 273.751,
        "meta_mean_anomaly": 86.2738,
        "meta_ephemeris_type": 0,
        "meta_classification_type": "U",
        "meta_norad_cat_id": 40878,
        "meta_element_set_no": 999,
        "meta_rev_at_epoch": 49382,
        "meta_bstar": 0.0012975235,
        "meta_mean_motion_dot": 4.5e-06,
        "meta_mean_motion_ddot": 0,
        "tle_line1": "1 40878U 15040A   25351.94644655  .00000450  00000+0  12975-2 0  9990",
        "tle_line2": "2 40878 100.1006 341.3310 0007571 273.7510  86.2738 13.16062401493821"
      },
      "geometry": {
        "type": "Point",
        "coordinates": [
          147.29033332177733,
          -54.59683436961946
        ]
      }
    },
    {
      "type": "Feature",
      "properties": {
        "norad_id": 40894,
        "name": "GAOFEN-9 01",
        "group": "resource",
        "lat": -81.35791470189913,
        "lon": 93.38389371443715,
        "alt_km": 633.012981898095,
        "timestamp": "2025-12-18T10:51:25.446447+00:00",
        "meta_object_name": "GAOFEN-9 01",
        "meta_object_id": "2015-047A",
        "meta_epoch": "2025-12-17T23:54:13.834944",
        "meta_mean_motion": 14.82435138,
        "meta_eccentricity": 0.00279799,
        "meta_inclination": 97.6537,
        "meta_ra_of_asc_node": 30.7244,
        "meta_arg_of_pericenter": 17.4764,
        "meta_mean_anomaly": 342.7406,
        "meta_ephemeris_type": 0,
        "meta_classification_type": "U",
        "meta_norad_cat_id": 40894,
        "meta_element_set_no": 999,
        "meta_rev_at_epoch": 55334,
        "meta_bstar": 0.00012096639,
        "meta_mean_motion_dot": 9.25e-06,
        "meta_mean_motion_ddot": 0,
        "tle_line1": "1 40894U 15047A   25351.99599346  .00000925  00000+0  12097-3 0  9999",
        "tle_line2": "2 40894  97.6537  30.7244 0027979  17.4764 342.7406 14.82435138553342"
      },
      "geometry": {
        "type": "Point",
        "coordinates": [
          93.38389371443715,
          -81.35791470189913
        ]
      }
    }
  ]
}